     2.100          NAVIGATION                              RINEX VERSION / TYPE
fic2rin                                 10/04/2014 00:19:27 PGM / RUN BY / DATE
                                                            END OF HEADER
10 14 10  4  0  0  0.0 -.144324731082D-03 -.147792889038D-11  .000000000000D+00
     .490000000000D+02  .422500000000D+02  .524057543386D-08  .263618120812D+01
     .208243727684D-05  .140325550456D-01  .750459730625D-05  .515361888885D+04
     .518400000000D+06  .745058059692D-08 -.289984001356D+01 -.210478901863D-06
     .942135235668D+00  .225000000000D+03  .887400404429D+00 -.819212694926D-08
     .373229832235D-09  .100000000000D+01  .181200000000D+04  .000000000000D+00
     .240000000000D+01  .000000000000D+00 -.279396772385D-08  .490000000000D+02
     .511206000000D+06  .400000000000D+01
11 14 10  4  0  0  0.0 -.526008661836D-03 -.284217094304D-11  .000000000000D+00
     .670000000000D+02 -.678750000000D+02  .608525347523D-08 -.109147290340D+01
    -.327080488205D-05  .155732268468D-01  .914931297302D-05  .515371585083D+04
     .518400000000D+06 -.707805156708D-07  .199721100497D+01  .346451997757D-06
     .891236117116D+00  .168156250000D+03  .134164778810D+01 -.899180311612D-08
    -.292869342041D-10  .100000000000D+01  .181200000000D+04  .000000000000D+00
     .240000000000D+01  .000000000000D+00 -.121071934700D-07  .670000000000D+02
     .511206000000D+06  .400000000000D+01
12 14 10  4  0  0  0.0  .236378051341D-03  .261479726760D-11  .000000000000D+00
     .750000000000D+02  .629062500000D+02  .403123934587D-08 -.162142320653D+01
     .332482159138D-05  .505861314014D-02  .533461570740D-05  .515353582382D+04
     .518400000000D+06  .931322574615D-08  .272330400111D+00 -.156462192535D-06
     .988691008960D+00  .293187500000D+03  .502374778635D+00 -.802426281418D-08
     .301083969927D-09  .100000000000D+01  .181200000000D+04  .000000000000D+00
     .240000000000D+01  .000000000000D+00 -.121071934700D-07  .750000000000D+02
     .511206000000D+06  .400000000000D+01
13 14 10  4  0  0  0.0 -.476404093206D-04 -.363797880709D-11  .000000000000D+00
     .880000000000D+02 -.159375000000D+02  .438482550273D-08  .954221999428D+00
    -.105425715446D-05  .587119092233D-02  .714883208275D-05  .515592461777D+04
     .518400000000D+06  .167638063431D-07 -.175569096161D+01 -.670552253723D-07
     .976025880538D+00  .247500000000D+03  .223088172481D+01 -.803783480808D-08
    -.446090010011D-09  .100000000000D+01  .181200000000D+04  .000000000000D+00
     .240000000000D+01  .000000000000D+00 -.111758708954D-07  .880000000000D+02
     .511206000000D+06  .400000000000D+01
14 14 10  4  0  0  0.0  .128844287246D-03 -.363797880709D-11  .000000000000D+00
     .260000000000D+02 -.258750000000D+02  .468805241906D-08  .144464081966D+01
    -.142119824886D-05  .791040749755D-02  .717863440514D-05  .515372257233D+04
     .518400000000D+06 -.165775418282D-06 -.178853592141D+01 -.931322574615D-07
     .968567236599D+00  .248906250000D+03 -.197411753086D+01 -.825462955274D-08
    -.493234830925D-09  .100000000000D+01  .181200000000D+04  .000000000000D+00
     .240000000000D+01  .000000000000D+00 -.884756445885D-08  .260000000000D+02
     .511206000000D+06  .400000000000D+01
16 14 10  4  0  0  0.0 -.190598890185D-03  .261479726760D-11  .000000000000D+00
     .320000000000D+02  .634375000000D+02  .398623747136D-08  .251081615074D+01
     .321678817272D-05  .766389816999D-02  .550039112568D-05  .515366942215D+04
     .518400000000D+06 -.128522515297D-06  .290926182335D+00  .260770320892D-07
     .989263185480D+00  .289843750000D+03  .236567834526D+00 -.795568852922D-08
     .256796410887D-09  .100000000000D+01  .181200000000D+04  .000000000000D+00
     .240000000000D+01  .000000000000D+00 -.102445483208D-07  .320000000000D+02
     .511206000000D+06  .400000000000D+01
17 14 10  4  0  0  0.0 -.128296203911D-03 -.261479726760D-11  .000000000000D+00
     .280000000000D+02 -.758437500000D+02  .446768609706D-08  .160978573125D+01
    -.398233532906D-05  .952944264282D-02  .578537583351D-05  .515365393829D+04
     .518400000000D+06 -.266358256340D-06  .132088513016D+01 -.763684511185D-07
     .969635316014D+00  .271375000000D+03 -.209580226233D+01 -.830534595100D-08
    -.152506352502D-09  .100000000000D+01  .181200000000D+04  .000000000000D+00
     .240000000000D+01  .000000000000D+00 -.102445483208D-07  .280000000000D+02
     .511206000000D+06  .400000000000D+01
18 14 10  4  0  0  0.0  .349016394466D-03  .261479726760D-11  .000000000000D+00
     .360000000000D+02  .496250000000D+02  .554130224605D-08  .310618858339D+01
     .246241688728D-05  .154800614109D-01  .753998756409D-05  .515373084068D+04
     .518400000000D+06  .143423676491D-06 -.292440590742D+01 -.279396772385D-06
     .925905659070D+00  .212250000000D+03 -.200903791498D+01 -.833677583161D-08
     .390730561211D-09  .100000000000D+01  .181200000000D+04  .000000000000D+00
     .240000000000D+01  .000000000000D+00 -.107102096081D-07  .360000000000D+02
     .511206000000D+06  .400000000000D+01
19 14 10  4  0  0  0.0 -.481782946736D-03 -.181898940355D-11  .000000000000D+00
     .480000000000D+02 -.771250000000D+02  .451625954891D-08  .744945851105D+00
    -.399351119995D-05  .106131955981D-01  .543892383575D-05  .515365658188D+04
     .518400000000D+06 -.763684511185D-07  .137130267217D+01  .163912773132D-06
     .966722773392D+00  .278687500000D+03  .507107991563D+00 -.832856120372D-08
    -.222509268404D-09  .100000000000D+01  .181200000000D+04  .000000000000D+00
     .240000000000D+01  .000000000000D+00 -.149011611938D-07  .480000000000D+02
     .511206000000D+06  .400000000000D+01
20 14 10  4  0  0  0.0  .241139438003D-03  .432009983342D-11  .000000000000D+00
     .690000000000D+02  .478437500000D+02  .559630453712D-08 -.266862173252D+01
     .244565308094D-05  .604039500467D-02  .759400427341D-05  .515371866226D+04
     .518400000000D+06  .132247805595D-06 -.297730700595D+01  .409781932831D-07
     .927005017137D+00  .214406250000D+03  .133024286120D+01 -.853285542768D-08
     .439661170795D-09  .100000000000D+01  .181200000000D+04  .000000000000D+00
     .240000000000D+01  .000000000000D+00 -.791624188423D-08  .690000000000D+02
     .511206000000D+06  .400000000000D+01
21 14 10  4  0  0  0.0 -.387449748814D-03 -.204636307899D-11  .000000000000D+00
     .240000000000D+02 -.592812500000D+02  .478519932276D-08 -.222902719380D+01
    -.322796404362D-05  .216717352159D-01  .115260481834D-04  .515369459343D+04
     .518400000000D+06  .303611159325D-06  .231467126920D+01 -.149011611938D-07
     .932904775571D+00  .132218750000D+03 -.199052359974D+01 -.785282710177D-08
     .338585532018D-09  .100000000000D+01  .181200000000D+04  .000000000000D+00
     .240000000000D+01  .000000000000D+00 -.111758708954D-07  .240000000000D+02
     .511206000000D+06  .400000000000D+01
22 14 10  4  0  0  0.0  .273681711406D-03  .363797880709D-11  .000000000000D+00
     .960000000000D+02  .471250000000D+02  .565666419420D-08  .256260027914D+01
     .242143869400D-05  .733598030638D-02  .769086182117D-05  .515371884155D+04
     .518400000000D+06  .149011611938D-07 -.292277160556D+01 -.130385160446D-06
     .923695536564D+00  .212000000000D+03 -.205361359208D+01 -.846785272005D-08
     .400730977768D-09  .100000000000D+01  .181200000000D+04  .000000000000D+00
     .340000000000D+01  .000000000000D+00 -.172294676304D-07  .960000000000D+02
     .511206000000D+06  .400000000000D+01
23 14 10  4  0  0  0.0 -.571147538722D-04 -.284217094304D-11  .000000000000D+00
     .600000000000D+02 -.145625000000D+02  .514485716109D-08  .317935231301D+00
    -.769272446632D-06  .969977932982D-02  .634044408798D-05  .515372464752D+04
     .518400000000D+06  .745058059692D-08 -.185623419787D+01  .838190317154D-07
     .950301689114D+00  .248718750000D+03 -.272399735260D+01 -.857464288258D-08
    -.436803908922D-09  .100000000000D+01  .181200000000D+04  .000000000000D+00
     .240000000000D+01  .000000000000D+00 -.200234353542D-07  .600000000000D+02
     .511206000000D+06  .400000000000D+01
24 14 10  4  0  0  0.0 -.362251885235D-04 -.682121026330D-12  .000000000000D+00
     .107000000000D+03  .370312500000D+02  .445839999597D-08 -.306341583579D+00
     .172108411789D-05  .228639156558D-02  .117495656013D-04  .515371291733D+04
     .518400000000D+06  .465661287308D-07 -.828866465638D+00  .316649675369D-07
     .955685894736D+00  .149656250000D+03  .226343586382D+00 -.807176479283D-08
    -.310012913282D-09  .100000000000D+01  .181200000000D+04  .000000000000D+00
     .340000000000D+01  .000000000000D+00  .279396772385D-08  .107000000000D+03
     .511206000000D+06  .400000000000D+01
25 14 10  4  0  0  0.0  .195871107280D-04 -.125055521494D-11  .000000000000D+00
     .105000000000D+03  .703750000000D+02  .420803242430D-08 -.237290850480D+01
     .376254320145D-05  .373437500093D-02  .559352338314D-05  .515378702164D+04
     .518400000000D+06 -.502914190292D-07  .228444651271D+00 -.521540641785D-07
     .977347191073D+00  .280687500000D+03  .731080434972D+00 -.810640909305D-08
     .333228166005D-09  .100000000000D+01  .181200000000D+04  .000000000000D+00
     .240000000000D+01  .000000000000D+00  .558793544769D-08  .105000000000D+03
     .511206000000D+06  .400000000000D+01
26 14 10  4  0  0  0.0 -.764448195696D-04 -.128466126625D-10  .000000000000D+00
     .187000000000D+03 -.115625000000D+02  .469162399640D-08  .306660047679D+00
    -.447034835815D-06  .212399264565D-01  .755302608013D-05  .515368176460D+04
     .518400000000D+06 -.221654772758D-06 -.176495374488D+01  .819563865662D-07
     .973396807553D+00  .243593750000D+03  .129405692712D+01 -.851928343378D-08
    -.558237538548D-09  .100000000000D+01  .181200000000D+04  .000000000000D+00
     .240000000000D+01  .000000000000D+00 -.605359673500D-08  .187000000000D+03
     .511206000000D+06  .400000000000D+01
